GLOBALSTAR M069         
1 31573U 07020C   26117.03823385 -.00000115  00000+0 -20379-3 0  9999
2 31573  52.0055  36.8950 0002368  46.0383 327.5937 12.23469809872548
GLOBALSTAR M072         
1 31574U 07020D   26117.29373925 -.00000092  00000+0 -11283-3 0  9996
2 31574  51.9926 235.7382 0001487 186.8581 187.9783 11.91657347868910
GLOBALSTAR M066         
1 32265U 07048C   26117.21270942 -.00000108  00000+0 -11592-3 0  9992
2 32265  51.9580 204.2466 0004298 292.0491  89.0003 12.30387834853951
GLOBALSTAR M079         
1 37188U 10054A   26117.16573669 -.00000099  00000+0  27766-4 0  9997
2 37188  52.0041 263.9869 0000561 134.8085  35.7687 12.62265150716106
GLOBALSTAR M074         
1 37189U 10054B   26116.87308110 -.00000105  00000+0 -62455-5 0  9996
2 37189  52.0015 264.1512 0000647 104.6529  55.1678 12.62267580716676
GLOBALSTAR M076         
1 37190U 10054C   26117.13935656 -.00000091  00000+0  69240-4 0  9990
2 37190  52.0031 263.5381 0000419 102.6726  68.5922 12.62272385716429
GLOBALSTAR M077         
1 37191U 10054D   26117.29502328 -.00000079  00000+0 -22134-4 0  9992
2 37191  51.9972 308.4688 0003311  83.7349  87.4401 11.67547500715198
GLOBALSTAR M075         
1 37192U 10054E   26117.23178689 -.00000080  00000+0  13184-3 0  9991
2 37192  51.9954 305.3413 0000823 101.2299  69.5400 12.62266183715502
GLOBALSTAR M073         
1 37193U 10054F   26117.27769971 -.00000110  00000+0 -34617-4 0  9996
2 37193  52.0058 219.2614 0000352 152.5891 225.9172 12.62266494717501
GLOBALSTAR M083         
1 37739U 11033A   26117.30356527 -.00000092  00000+0  68319-4 0  9997
2 37739  51.9836 167.4809 0000219 191.4485 246.2738 12.62262831686524
GLOBALSTAR M088         
1 37740U 11033B   26117.29690009 -.00000104  00000+0  64634-6 0  9995
2 37740  52.0214  73.8036 0000472  56.2466 109.1180 12.62263120682063
GLOBALSTAR M091         
1 37741U 11033C   26117.14567546 -.00000103  00000+0  69854-5 0  9996
2 37741  52.0018  37.3041 0000548  82.8712  56.4126 12.62262794682835
GLOBALSTAR M085         
1 37742U 11033D   26117.05499832 -.00000082  00000+0  12423-3 0  9993
2 37742  52.0146 348.8298 0000704 100.7388  46.4834 12.62262886683338
GLOBALSTAR M081         
1 37743U 11033E   26117.08255013 -.00000081  00000+0  12722-3 0  9999
2 37743  51.9983 351.2411 0000651  81.1581  70.6082 12.62263686683488
GLOBALSTAR M089         
1 37744U 11033F   26117.28459924 -.00000081  00000+0  12930-3 0  9990
2 37744  51.9936 304.7953 0000829  77.9703  92.8193 12.62266001684357
GLOBALSTAR M084         
1 38040U 11080A   26117.10552249 -.00000093  00000+0  62362-4 0  9995
2 38040  51.9992 172.7940 0000197  60.2087 316.3487 12.62266659662317
GLOBALSTAR M080         
1 38041U 11080B   26117.07520135 -.00000090  00000+0  77973-4 0  9992
2 38041  52.0042 174.5870 0000726 143.2414 225.2202 12.62268540662439
GLOBALSTAR M082         
1 38042U 11080C   26117.32915743 -.00000084  00000+0  10927-3 0  9992
2 38042  52.0049 129.3077 0000361 144.7212 228.4085 12.62269333663178
GLOBALSTAR M092         
1 38043U 11080D   26117.30748552 -.00000105  00000+0 -82970-5 0  9997
2 38043  52.0085 219.7690 0000499 122.2742 271.7024 12.62266719661622
GLOBALSTAR M090         
1 38044U 11080E   26117.21226319 -.00000086  00000+0  97453-4 0  9998
2 38044  52.0101 123.6024 0000075  96.6801 344.1281 12.62268308663275
GLOBALSTAR M086         
1 38045U 11080F   26117.29894003 -.00000075  00000+0  15947-3 0  9993
2 38045  51.9872 123.3517 0000871 306.7910  65.6159 12.62285529663232
GLOBALSTAR M097         
1 39072U 13005A   26117.24691672 -.00000106  00000+0 -11156-4 0  9990
2 39072  52.0065  38.3968 0000444  76.9250 283.1667 12.62260063610478
GLOBALSTAR M093         
1 39073U 13005B   26117.14147834 -.00000097  00000+0  36198-4 0  9997
2 39073  52.0126  32.0478 0000327  84.1132 275.9772 12.62264616610412
GLOBALSTAR M094         
1 39074U 13005C   26117.22071952 -.00000082  00000+0  12094-3 0  9996
2 39074  51.9962 305.9781 0000649 114.4848 245.6087 12.62267874612038
GLOBALSTAR M096         
1 39075U 13005D   26116.99648346 -.00000085  00000+0  10318-3 0  9997
2 39075  52.0099 355.4206 0000653  95.0446 265.0496 12.62264361610921
GLOBALSTAR M078         
1 39076U 13005E   26117.20694745 -.00000107  00000+0 -19570-4 0  9993
2 39076  51.9870  78.8543 0001036 129.2195 230.8764 12.62266002609575
GLOBALSTAR M095         
1 39077U 13005F   26117.23376250 -.00000105  00000+0 -66663-5 0  9999
2 39077  52.0076  76.3057 0000363 128.9990 231.0909 12.62267332609436
GLOBALSTAR M087         
1 52888U 22064A   26117.24721527 -.00000101  00000+0  14226-4 0  9993
2 52888  51.9993 217.5378 0000577 155.4660 204.6234 12.62268388184705
